{
    "links": {
        "self": "http://www.neowsapp.com/rest/v1/neo/3407475?api_key=iIulBulltgU6a56xZRHN4H3l9WmuAYTsLGpBGhQ2"
    },
    "id": "3407475",
    "neo_reference_id": "3407475",
    "name": "(2008 FH)",
    "designation": "2008 FH",
    "nasa_jpl_url": "http://ssd.jpl.nasa.gov/sbdb.cgi?sstr=3407475",
    "absolute_magnitude_h": 24.3,
    "estimated_diameter": {
        "kilometers": {
            "estimated_diameter_min": 0.0366906138,
            "estimated_diameter_max": 0.0820427065
        },
        "meters": {
            "estimated_diameter_min": 36.6906137531,
            "estimated_diameter_max": 82.0427064882
        },
        "miles": {
            "estimated_diameter_min": 0.0227984834,
            "estimated_diameter_max": 0.0509789586
        },
        "feet": {
            "estimated_diameter_min": 120.3760332259,
            "estimated_diameter_max": 269.1689931548
        }
    },
    "is_potentially_hazardous_asteroid": false,
    "close_approach_data": [
        {
            "close_approach_date": "2008-04-12",
            "close_approach_date_full": "2008-Apr-12 15:12",
            "epoch_date_close_approach": 1208013120000,
            "relative_velocity": {
                "kilometers_per_second": "12.8165370798",
                "kilometers_per_hour": "46139.5334871169",
                "miles_per_hour": "28669.3117937033"
            },
            "miss_distance": {
                "astronomical": "0.0410881454",
                "lunar": "15.9832885606",
                "kilometers": "6146699.034090298",
                "miles": "3819381.6727021924"
            },
            "orbiting_body": "Earth"
        }
    ],
    "orbital_data": {
        "orbit_id": "9",
        "orbit_determination_date": "2017-04-06 09:03:56",
        "first_observation_date": "2008-03-27",
        "last_observation_date": "2008-04-08",
        "data_arc_in_days": 12,
        "observations_used": 25,
        "orbit_uncertainty": "9",
        "minimum_orbit_intersection": ".0155334",
        "jupiter_tisserand_invariant": "4.208",
        "epoch_osculation": "2454556.5",
        "eccentricity": ".5099077215604316",
        "semi_major_axis": "1.598120684431209",
        "inclination": "3.496217178008664",
        "ascending_node_longitude": "5.18991855133665",
        "orbital_period": "737.9259545934297",
        "perihelion_distance": ".7832266074542938",
        "perihelion_argument": "264.1367145930283",
        "aphelion_distance": "2.413014761408125",
        "perihelion_time": "2454615.623261759798",
        "mean_anomaly": "331.1564905651622",
        "mean_motion": ".4878538256570022",
        "equinox": "J2000",
        "orbit_class": {
            "orbit_class_type": "APO",
            "orbit_class_description": "Near-Earth asteroid orbits which cross the Earth’s orbit similar to that of 1862 Apollo",
            "orbit_class_range": "a (semi-major axis) > 1.0 AU; q (perihelion) < 1.017 AU"
        }
    },
    "is_sentry_object": false
}